SL-16 R/B               
1 25407U 98045B   26066.03038703 -.00000008  00000+0  19920-4 0  9991
2 25407  71.0113 187.1655 0006592  12.1733 347.9549 14.16189284426721
ISS (ZARYA)             
1 25544U 98067A   26065.86737742  .00008564  00000+0  16627-3 0  9990
2 25544  51.6318  86.3097 0008109 164.5613 195.5624 15.48482048555891
CZ-4B R/B               
1 25732U 99025C   26066.12581469  .00000051  00000+0  45517-4 0  9991
2 25732  98.6631 110.4680 0036892 354.0366  67.6719 14.18264762387802
OKEAN-O                 
1 25860U 99039A   26066.15101617  .00000824  00000+0  11497-3 0  9991
2 25860  97.9447 126.0683 0001314  69.7797 290.3556 14.80330216434013
SL-16 R/B               
1 25861U 99039B   26066.13327098  .00000692  00000+0  94513-4 0  9997
2 25861  97.9971 125.2338 0013466 265.2812  94.6862 14.81726893436485
DELTA 2 R/B             
1 25876U 99041E   26066.03481819  .00001232  00000+0  23640-3 0  9990
2 25876  51.7637 311.8847 0502343 340.6027  17.6374 14.11828961362651
HELIOS 1B               
1 25977U 99064A   26066.15800726  .00002155  00000+0  24300-3 0  9991
2 25977  98.1696 328.3272 0002474  78.3985 281.7508 14.87686022684884
TERRA                   
1 25994U 99068A   26066.18245512  .00000502  00000+0  11129-3 0  9992
2 25994  97.9598 119.7129 0002549 157.7007 269.8251 14.61011101394718
SL-16 R/B               
1 26070U 00006B   26066.18641894  .00000017  00000+0  33050-4 0  9994
2 26070  71.0011 103.1015 0016954 193.7432 166.3232 14.15825660348200
TITAN 4B R/B            
1 26474U 00047B   26066.17872685  .00005250  00000+0  32911-3 0  9998
2 26474  67.9896  47.5704 0038389  38.3626 322.0242 15.09530446392530
ENVISAT                 
1 27386U 02009A   26065.97994873  .00000167  00000+0  67966-4 0  9993
2 27386  98.3726  19.6419 0001330  84.0199  29.4965 14.39035629258788
IDEFIX & ARIANE 42P R/B 
1 27422U 02021B   26066.11858351  .00000356  00000+0  15190-3 0  9996
2 27422  98.5867   4.7556 0011422 189.8444 170.2516 14.31023761243657
